IRIDIUM 7               
1 24793U 97020B   24286.83446744  .00001825  00000+0  62825-3 0  9996
2 24793  86.3899 280.5350 0002167  95.2217 264.9227 14.35495435436407
IRIDIUM 5               
1 24795U 97020D   24286.84166234  .00013502  00000+0  12252-2 0  9995
2 24795  86.3970 197.3462 0114638 304.8814  54.1677 14.90239471448573
IRIDIUM 4               
1 24796U 97020E   24286.69581542  .00001561  00000+0  52644-3 0  9994
2 24796  86.3894 277.6293 0002208  89.1382 271.0068 14.36415891436938
IRIDIUM 914             
1 24836U 97030A   24286.75741361  .00002102  00000+0  65738-3 0  9994
2 24836  86.3879 286.9557 0001713  43.8951 316.2384 14.40328478571506
IRIDIUM 16              
1 24841U 97030F   24286.62720238  .00001745  00000+0  56826-3 0  9996
2 24841  86.3999 309.3130 0003687 124.0441 236.1108 14.38216098431410
IRIDIUM 911             
1 24842U 97030G   24286.54128244  .00002428  00000+0  66242-3 0  9999
2 24842  86.4429 308.3686 0013568 194.2652 165.8170 14.46956964439267
IRIDIUM 17              
1 24870U 97034B   24286.73971448  .00001879  00000+0  62343-3 0  9994
2 24870  86.3988 338.8368 0003858  98.4309 261.7326 14.37332048428030
IRIDIUM 920             
1 24871U 97034C   24286.65419576  .00001769  00000+0  54401-3 0  9999
2 24871  86.3965 318.6749 0011922 167.7274 192.4218 14.41024436430922
